IRIDIUM 106             
1 41917U 17003A   26023.60488479  .00000488  00000+0  16731-3 0  9992
2 41917  86.4021 148.9794 0002091  84.2937 275.8497 14.34215238472482
IRIDIUM 103             
1 41918U 17003B   26023.38289265  .00000642  00000+0  22225-3 0  9997
2 41918  86.4019 148.9724 0002402  98.9040 261.2428 14.34216077472470
IRIDIUM 109             
1 41919U 17003C   26023.59854396  .00000487  00000+0  16689-3 0  9998
2 41919  86.4021 148.9394 0002071  96.0895 264.0537 14.34215146472474
IRIDIUM 102             
1 41920U 17003D   26023.63659527  .00000191  00000+0  61191-4 0  9995
2 41920  86.4020 148.8504 0002041  98.4127 261.7300 14.34219710472561
IRIDIUM 105             
1 41921U 17003E   26023.32825188  .00000243  00000+0  79718-4 0  9992
2 41921  86.3988 117.4636 0002107  96.5750 263.5685 14.34217482474377
IRIDIUM 104             
1 41922U 17003F   26023.43997039  .00000498  00000+0  17068-3 0  9991
2 41922  86.4020 148.9727 0002165 104.5997 255.5439 14.34221808472523
IRIDIUM 114             
1 41923U 17003G   26023.44631927  .00000138  00000+0  42113-4 0  9995
2 41923  86.4016 148.9535 0002232 100.3327 259.8121 14.34219252472505
IRIDIUM 108             
1 41924U 17003H   26023.33506890  .00000358  00000+0  12063-3 0  9998
2 41924  86.3984 117.3484 0001945  96.3904 263.7513 14.34221020474346
